{
  "type": "FeatureCollection",
  "features": [
    {
      "type": "Feature",
      "properties": {
        "norad_id": 27954,
        "name": "GALAXY 13 (HORIZONS-1)",
        "group": "intelsat",
        "lat": 0.6440237764904533,
        "lon": -139.2352709605047,
        "alt_km": 35778.668075322996,
        "timestamp": "2025-12-08T19:31:48.495312+00:00",
        "meta_object_name": "GALAXY 13 (HORIZONS-1)",
        "meta_object_id": "2003-044A",
        "meta_epoch": "2025-12-08T07:28:59.087136",
        "meta_mean_motion": 1.00269587,
        "meta_eccentricity": 0.0002058,
        "meta_inclination": 0.924,
        "meta_ra_of_asc_node": 86.5285,
        "meta_arg_of_pericenter": 159.2549,
        "meta_mean_anomaly": 153.7935,
        "meta_ephemeris_type": 0,
        "meta_classification_type": "U",
        "meta_norad_cat_id": 27954,
        "meta_element_set_no": 999,
        "meta_rev_at_epoch": 4465,
        "meta_bstar": 0,
        "meta_mean_motion_dot": 1.35e-06,
        "meta_mean_motion_ddot": 0,
        "tle_line1": "1 27954U 03044A   25342.31179499  .00000135  00000+0  00000+0 0  9994",
        "tle_line2": "2 27954   0.9240  86.5285 0002058 159.2549 153.7935  1.00269587 44658"
      },
      "geometry": {
        "type": "Point",
        "coordinates": [
          -139.2352709605047,
          0.6440237764904533
        ]
      }
    },
    {
      "type": "Feature",
      "properties": {
        "norad_id": 28358,
        "name": "INTELSAT 10-02",
        "group": "intelsat",
        "lat": -0.018656546924276426,
        "lon": 9.807429349239362,
        "alt_km": 35784.61915415943,
        "timestamp": "2025-12-08T19:31:48.495325+00:00",
        "meta_object_name": "INTELSAT 10-02",
        "meta_object_id": "2004-022A",
        "meta_epoch": "2025-12-08T03:19:34.131072",
        "meta_mean_motion": 1.00274449,
        "meta_eccentricity": 0.00012914,
        "meta_inclination": 0.0347,
        "meta_ra_of_asc_node": 75.2621,
        "meta_arg_of_pericenter": 212.0256,
        "meta_mean_anomaly": 198.7772,
        "meta_ephemeris_type": 0,
        "meta_classification_type": "U",
        "meta_norad_cat_id": 28358,
        "meta_element_set_no": 999,
        "meta_rev_at_epoch": 7864,
        "meta_bstar": 0,
        "meta_mean_motion_dot": -8e-08,
        "meta_mean_motion_ddot": 0,
        "tle_line1": "1 28358U 04022A   25342.13858948 -.00000008  00000+0  00000+0 0  9993",
        "tle_line2": "2 28358   0.0347  75.2621 0001291 212.0256 198.7772  1.00274449 78643"
      },
      "geometry": {
        "type": "Point",
        "coordinates": [
          9.807429349239362,
          -0.018656546924276426
        ]
      }
    },
    {
      "type": "Feature",
      "properties": {
        "norad_id": 28626,
        "name": "XM-3 (RHYTHM)",
        "group": "intelsat",
        "lat": 0.15175100067585756,
        "lon": 143.72565851670458,
        "alt_km": 36164.81441244391,
        "timestamp": "2025-12-08T19:31:48.495337+00:00",
        "meta_object_name": "XM-3 (RHYTHM)",
        "meta_object_id": "2005-008A",
        "meta_epoch": "2025-12-08T07:23:57.897600",
        "meta_mean_motion": 0.9895411,
        "meta_eccentricity": 0.00013053,
        "meta_inclination": 0.1631,
        "meta_ra_of_asc_node": 81.1205,
        "meta_arg_of_pericenter": 262.5344,
        "meta_mean_anomaly": 340.0089,
        "meta_ephemeris_type": 0,
        "meta_classification_type": "U",
        "meta_norad_cat_id": 28626,
        "meta_element_set_no": 999,
        "meta_rev_at_epoch": 4070,
        "meta_bstar": 0,
        "meta_mean_motion_dot": -2.57e-06,
        "meta_mean_motion_ddot": 0,
        "tle_line1": "1 28626U 05008A   25342.30830900 -.00000257  00000+0  00000+0 0  9999",
        "tle_line2": "2 28626   0.1631  81.1205 0001305 262.5344 340.0089  0.98954110 40701"
      },
      "geometry": {
        "type": "Point",
        "coordinates": [
          143.72565851670458,
          0.15175100067585756
        ]
      }
    },
    {
      "type": "Feature",
      "properties": {
        "norad_id": 28659,
        "name": "DIRECTV 8",
        "group": "intelsat",
        "lat": -0.036860726129304223,
        "lon": -108.29058939688984,
        "alt_km": 35772.67692893165,
        "timestamp": "2025-12-08T19:31:48.495347+00:00",
        "meta_object_name": "DIRECTV 8",
        "meta_object_id": "2005-019A",
        "meta_epoch": "2025-12-08T05:50:38.546880",
        "meta_mean_motion": 1.00271579,
        "meta_eccentricity": 0.00032192,
        "meta_inclination": 0.0167,
        "meta_ra_of_asc_node": 0.7115,
        "meta_arg_of_pericenter": 260.6499,
        "meta_mean_anomaly": 144.5052,
        "meta_ephemeris_type": 0,
        "meta_classification_type": "U",
        "meta_norad_cat_id": 28659,
        "meta_element_set_no": 999,
        "meta_rev_at_epoch": 7515,
        "meta_bstar": 0,
        "meta_mean_motion_dot": 4e-08,
        "meta_mean_motion_ddot": 0,
        "tle_line1": "1 28659U 05019A   25342.24350170  .00000004  00000+0  00000+0 0  9995",
        "tle_line2": "2 28659   0.0167   0.7115 0003219 260.6499 144.5052  1.00271579 75152"
      },
      "geometry": {
        "type": "Point",
        "coordinates": [
          -108.29058939688984,
          -0.036860726129304223
        ]
      }
    },
    {
      "type": "Feature",
      "properties": {
        "norad_id": 28702,
        "name": "GALAXY 28 (G-28)",
        "group": "intelsat",
        "lat": -1.0157471764054706,
        "lon": -77.92837292703818,
        "alt_km": 35775.98812221196,
        "timestamp": "2025-12-08T19:31:48.495358+00:00",
        "meta_object_name": "GALAXY 28 (G-28)",
        "meta_object_id": "2005-022A",
        "meta_epoch": "2025-12-08T06:07:07.800960",
        "meta_mean_motion": 1.00271364,
        "meta_eccentricity": 0.00026645,
        "meta_inclination": 2.8072,
        "meta_ra_of_asc_node": 81.3344,
        "meta_arg_of_pericenter": 177.658,
        "meta_mean_anomaly": 181.3705,
        "meta_ephemeris_type": 0,
        "meta_classification_type": "U",
        "meta_norad_cat_id": 28702,
        "meta_element_set_no": 999,
        "meta_rev_at_epoch": 5005,
        "meta_bstar": 0,
        "meta_mean_motion_dot": -1.85e-06,
        "meta_mean_motion_ddot": 0,
        "tle_line1": "1 28702U 05022A   25342.25495140 -.00000185  00000+0  00000+0 0  9997",
        "tle_line2": "2 28702   2.8072  81.3344 0002664 177.6580 181.3705  1.00271364 50054"
      },
      "geometry": {
        "type": "Point",
        "coordinates": [
          -77.92837292703818,
          -1.0157471764054706
        ]
      }
    },
    {
      "type": "Feature",
      "properties": {
        "norad_id": 29236,
        "name": "GALAXY 16 (G-16)",
        "group": "intelsat",
        "lat": -0.000423666558415028,
        "lon": -88.23603789003585,
        "alt_km": 35774.00142981659,
        "timestamp": "2025-12-08T19:31:48.495370+00:00",
        "meta_object_name": "GALAXY 16 (G-16)",
        "meta_object_id": "2006-023A",
        "meta_epoch": "2025-12-08T06:03:54.608832",
        "meta_mean_motion": 1.00273466,
        "meta_eccentricity": 0.00029586,
        "meta_inclination": 0.0218,
        "meta_ra_of_asc_node": 153.6673,
        "meta_arg_of_pericenter": 96.1223,
        "meta_mean_anomaly": 179.435,
        "meta_ephemeris_type": 0,
        "meta_classification_type": "U",
        "meta_norad_cat_id": 29236,
        "meta_element_set_no": 999,
        "meta_rev_at_epoch": 7105,
        "meta_bstar": 0,
        "meta_mean_motion_dot": -1.24e-06,
        "meta_mean_motion_ddot": 0,
        "tle_line1": "1 29236U 06023A   25342.25271538 -.00000124  00000+0  00000+0 0  9998",
        "tle_line2": "2 29236   0.0218 153.6673 0002958  96.1223 179.4350  1.00273466 71054"
      },
      "geometry": {
        "type": "Point",
        "coordinates": [
          -88.23603789003585,
          -0.000423666558415028
        ]
      }
    },
    {
      "type": "Feature",
      "properties": {
        "norad_id": 29494,
        "name": "DIRECTV 9S",
        "group": "intelsat",
        "lat": -0.2337207268292291,
        "lon": -90.44609010166126,
        "alt_km": 35773.04578334811,
        "timestamp": "2025-12-08T19:31:48.495391+00:00",
        "meta_object_name": "DIRECTV 9S",
        "meta_object_id": "2006-043A",
        "meta_epoch": "2025-12-08T06:00:20.118240",
        "meta_mean_motion": 1.00270613,
        "meta_eccentricity": 0.00032124,
        "meta_inclination": 1.9284,
        "meta_ra_of_asc_node": 83.2534,
        "meta_arg_of_pericenter": 176.5091,
        "meta_mean_anomaly": 166.3686,
        "meta_ephemeris_type": 0,
        "meta_classification_type": "U",
        "meta_norad_cat_id": 29494,
        "meta_element_set_no": 999,
        "meta_rev_at_epoch": 4946,
        "meta_bstar": 0,
        "meta_mean_motion_dot": -1.11e-06,
        "meta_mean_motion_ddot": 0,
        "tle_line1": "1 29494U 06043A   25342.25023285 -.00000111  00000+0  00000+0 0  9996",
        "tle_line2": "2 29494   1.9284  83.2534 0003212 176.5091 166.3686  1.00270613 49465"
      },
      "geometry": {
        "type": "Point",
        "coordinates": [
          -90.44609010166126,
          -0.2337207268292291
        ]
      }
    }
  ]
}